IXPE                    
1 49954U 21121A   24256.25001157  .00014207  00000+0  10481-2 0  9997
2 49954   0.2305 106.2322 0008662 135.8828 101.8899 14.99820389150988
